CCSDS_OMM_VERS = 2.0
CREATION_DATE  = 
ORIGINATOR     = 

OBJECT_NAME    = KUIPER-00175
OBJECT_ID      = 2025-301C
CENTER_NAME    = EARTH
REF_FRAME      = TEME
TIME_SYSTEM    = UTC
MEAN_ELEMENT_THEORY = SGP/SGP4

EPOCH          = 2026-01-08T04:13:37.337376
MEAN_MOTION    = 15.37129291
ECCENTRICITY   = .0002849
INCLINATION    = 51.8743
RA_OF_ASC_NODE = 357.4306
ARG_OF_PERICENTER = 92.9885
MEAN_ANOMALY   = 267.1427

EPHEMERIS_TYPE = 0
CLASSIFICATION_TYPE = U
NORAD_CAT_ID   = 67135
ELEMENT_SET_NO = 999
REV_AT_EPOCH   = 450
BSTAR          = .46083E-3
MEAN_MOTION_DOT = .16659E-3
MEAN_MOTION_DDOT = 0

CCSDS_OMM_VERS = 2.0
CREATION_DATE  = 
ORIGINATOR     = 

OBJECT_NAME    = KUIPER-00179
OBJECT_ID      = 2025-301D
CENTER_NAME    = EARTH
REF_FRAME      = TEME
TIME_SYSTEM    = UTC
MEAN_ELEMENT_THEORY = SGP/SGP4

EPOCH          = 2026-01-08T04:21:18.583776
MEAN_MOTION    = 15.36690491
ECCENTRICITY   = .0003391
INCLINATION    = 51.8737
RA_OF_ASC_NODE = 357.4675
ARG_OF_PERICENTER = 119.6806
MEAN_ANOMALY   = 240.4518

EPHEMERIS_TYPE = 0
CLASSIFICATION_TYPE = U
NORAD_CAT_ID   = 67136
ELEMENT_SET_NO = 999
REV_AT_EPOCH   = 461
BSTAR          = .44695E-3
MEAN_MOTION_DOT = .15914E-3
MEAN_MOTION_DDOT = 0

CCSDS_OMM_VERS = 2.0
CREATION_DATE  = 
ORIGINATOR     = 

OBJECT_NAME    = KUIPER-00181
OBJECT_ID      = 2025-301E
CENTER_NAME    = EARTH
REF_FRAME      = TEME
TIME_SYSTEM    = UTC
MEAN_ELEMENT_THEORY = SGP/SGP4

EPOCH          = 2026-01-08T03:27:36.349344
MEAN_MOTION    = 15.34816623
ECCENTRICITY   = .0010179
INCLINATION    = 51.8656
RA_OF_ASC_NODE = 357.9529
ARG_OF_PERICENTER = 184.5431
MEAN_ANOMALY   = 175.5463

EPHEMERIS_TYPE = 0
CLASSIFICATION_TYPE = U
NORAD_CAT_ID   = 67137
ELEMENT_SET_NO = 999
REV_AT_EPOCH   = 458
BSTAR          = -.70967E-3
MEAN_MOTION_DOT = -.2467E-3
MEAN_MOTION_DDOT = 0

CCSDS_OMM_VERS = 2.0
CREATION_DATE  = 
ORIGINATOR     = 

OBJECT_NAME    = KUIPER-00183
OBJECT_ID      = 2025-301F
CENTER_NAME    = EARTH
REF_FRAME      = TEME
TIME_SYSTEM    = UTC
MEAN_ELEMENT_THEORY = SGP/SGP4

EPOCH          = 2026-01-08T03:34:03.659808
MEAN_MOTION    = 15.34670352
ECCENTRICITY   = .0011166
INCLINATION    = 51.8635
RA_OF_ASC_NODE = 357.9780
ARG_OF_PERICENTER = 186.6185
MEAN_ANOMALY   = 173.4655

EPHEMERIS_TYPE = 0
CLASSIFICATION_TYPE = U
NORAD_CAT_ID   = 67138
ELEMENT_SET_NO = 999
REV_AT_EPOCH   = 459
BSTAR          = .6321E-3
MEAN_MOTION_DOT = .2128E-3
MEAN_MOTION_DDOT = 0

CCSDS_OMM_VERS = 2.0
CREATION_DATE  = 
ORIGINATOR     = 

OBJECT_NAME    = KUIPER-00184
OBJECT_ID      = 2025-301G
CENTER_NAME    = EARTH
REF_FRAME      = TEME
TIME_SYSTEM    = UTC
MEAN_ELEMENT_THEORY = SGP/SGP4

EPOCH          = 2026-01-08T03:26:19.870656
MEAN_MOTION    = 15.34915616
ECCENTRICITY   = .0009312
INCLINATION    = 51.8643
RA_OF_ASC_NODE = 357.9460
ARG_OF_PERICENTER = 184.6204
MEAN_ANOMALY   = 175.4697

EPHEMERIS_TYPE = 0
CLASSIFICATION_TYPE = U
NORAD_CAT_ID   = 67139
ELEMENT_SET_NO = 999
REV_AT_EPOCH   = 470
BSTAR          = .68008E-3
MEAN_MOTION_DOT = .23099E-3
MEAN_MOTION_DDOT = 0

CCSDS_OMM_VERS = 2.0
CREATION_DATE  = 
ORIGINATOR     = 

OBJECT_NAME    = KUIPER-00186
OBJECT_ID      = 2025-301H
CENTER_NAME    = EARTH
REF_FRAME      = TEME
TIME_SYSTEM    = UTC
MEAN_ELEMENT_THEORY = SGP/SGP4

EPOCH          = 2026-01-08T03:13:06.135456
MEAN_MOTION    = 15.35714389
ECCENTRICITY   = .000796
INCLINATION    = 51.8692
RA_OF_ASC_NODE = 357.8948
ARG_OF_PERICENTER = 169.5544
MEAN_ANOMALY   = 190.5608

EPHEMERIS_TYPE = 0
CLASSIFICATION_TYPE = U
NORAD_CAT_ID   = 67140
ELEMENT_SET_NO = 999
REV_AT_EPOCH   = 442
BSTAR          = .71377E-3
MEAN_MOTION_DOT = .24894E-3
MEAN_MOTION_DDOT = 0

CCSDS_OMM_VERS = 2.0
CREATION_DATE  = 
ORIGINATOR     = 

OBJECT_NAME    = KUIPER-00187
OBJECT_ID      = 2025-301J
CENTER_NAME    = EARTH
REF_FRAME      = TEME
TIME_SYSTEM    = UTC
MEAN_ELEMENT_THEORY = SGP/SGP4

EPOCH          = 2026-01-08T04:30:44.883936
MEAN_MOTION    = 15.36291217
ECCENTRICITY   = .0004938
INCLINATION    = 51.8711
RA_OF_ASC_NODE = 357.5113
ARG_OF_PERICENTER = 155.0658
MEAN_ANOMALY   = 205.0567

EPHEMERIS_TYPE = 0
CLASSIFICATION_TYPE = U
NORAD_CAT_ID   = 67141
ELEMENT_SET_NO = 999
REV_AT_EPOCH   = 443
BSTAR          = .41694E-3
MEAN_MOTION_DOT = .14626E-3
MEAN_MOTION_DDOT = 0

CCSDS_OMM_VERS = 2.0
CREATION_DATE  = 
ORIGINATOR     = 

OBJECT_NAME    = KUIPER-00188
OBJECT_ID      = 2025-301K
CENTER_NAME    = EARTH
REF_FRAME      = TEME
TIME_SYSTEM    = UTC
MEAN_ELEMENT_THEORY = SGP/SGP4

EPOCH          = 2026-01-08T03:15:12.795264
MEAN_MOTION    = 15.35565573
ECCENTRICITY   = .0007579
INCLINATION    = 51.8705
RA_OF_ASC_NODE = 357.9049
ARG_OF_PERICENTER = 175.1670
MEAN_ANOMALY   = 184.9390

EPHEMERIS_TYPE = 0
CLASSIFICATION_TYPE = U
NORAD_CAT_ID   = 67142
ELEMENT_SET_NO = 999
REV_AT_EPOCH   = 442
BSTAR          = .39252E-3
MEAN_MOTION_DOT = .13427E-3
MEAN_MOTION_DDOT = 0

CCSDS_OMM_VERS = 2.0
CREATION_DATE  = 
ORIGINATOR     = 

OBJECT_NAME    = KUIPER-00191
OBJECT_ID      = 2025-301L
CENTER_NAME    = EARTH
REF_FRAME      = TEME
TIME_SYSTEM    = UTC
MEAN_ELEMENT_THEORY = SGP/SGP4

EPOCH          = 2026-01-08T03:11:04.051392
MEAN_MOTION    = 15.35729861
ECCENTRICITY   = .0006662
INCLINATION    = 51.8680
RA_OF_ASC_NODE = 357.8848
ARG_OF_PERICENTER = 168.7401
MEAN_ANOMALY   = 191.3736

EPHEMERIS_TYPE = 0
CLASSIFICATION_TYPE = U
NORAD_CAT_ID   = 67143
ELEMENT_SET_NO = 999
REV_AT_EPOCH   = 445
BSTAR          = .76711E-3
MEAN_MOTION_DOT = .26796E-3
MEAN_MOTION_DDOT = 0

CCSDS_OMM_VERS = 2.0
CREATION_DATE  = 
ORIGINATOR     = 

OBJECT_NAME    = KUIPER-00196
OBJECT_ID      = 2025-301M
CENTER_NAME    = EARTH
REF_FRAME      = TEME
TIME_SYSTEM    = UTC
MEAN_ELEMENT_THEORY = SGP/SGP4

EPOCH          = 2026-01-08T04:26:47.967360
MEAN_MOTION    = 15.36486017
ECCENTRICITY   = .0003898
INCLINATION    = 51.8730
RA_OF_ASC_NODE = 357.4934
ARG_OF_PERICENTER = 132.4559
MEAN_ANOMALY   = 227.6757

EPHEMERIS_TYPE = 0
CLASSIFICATION_TYPE = U
NORAD_CAT_ID   = 67144
ELEMENT_SET_NO = 999
REV_AT_EPOCH   = 443
BSTAR          = .65732E-3
MEAN_MOTION_DOT = .23455E-3
MEAN_MOTION_DDOT = 0

CCSDS_OMM_VERS = 2.0
CREATION_DATE  = 
ORIGINATOR     = 

OBJECT_NAME    = KUIPER-00204
OBJECT_ID      = 2025-301N
CENTER_NAME    = EARTH
REF_FRAME      = TEME
TIME_SYSTEM    = UTC
MEAN_ELEMENT_THEORY = SGP/SGP4

EPOCH          = 2026-01-08T04:00:01.998720
MEAN_MOTION    = 15.30377895
ECCENTRICITY   = .0004608
INCLINATION    = 51.8776
RA_OF_ASC_NODE = 357.6042
ARG_OF_PERICENTER = 102.1286
MEAN_ANOMALY   = 129.4468

EPHEMERIS_TYPE = 0
CLASSIFICATION_TYPE = U
NORAD_CAT_ID   = 67145
ELEMENT_SET_NO = 999
REV_AT_EPOCH   = 453
BSTAR          = -.28948E-1
MEAN_MOTION_DOT = -.800205E-2
MEAN_MOTION_DDOT = 0

CCSDS_OMM_VERS = 2.0
CREATION_DATE  = 
ORIGINATOR     = 

OBJECT_NAME    = KUIPER-00210
OBJECT_ID      = 2025-301P
CENTER_NAME    = EARTH
REF_FRAME      = TEME
TIME_SYSTEM    = UTC
MEAN_ELEMENT_THEORY = SGP/SGP4

EPOCH          = 2026-01-08T03:32:04.324992
MEAN_MOTION    = 15.34715053
ECCENTRICITY   = .0010449
INCLINATION    = 51.8618
RA_OF_ASC_NODE = 357.9671
ARG_OF_PERICENTER = 191.2630
MEAN_ANOMALY   = 168.8123

EPHEMERIS_TYPE = 0
CLASSIFICATION_TYPE = U
NORAD_CAT_ID   = 67146
ELEMENT_SET_NO = 999
REV_AT_EPOCH   = 459
BSTAR          = .54487E-3
MEAN_MOTION_DOT = .18305E-3
MEAN_MOTION_DDOT = 0

