KUIPER-00175            
1 67135U 25301C   26008.17612659  .00016659  00000+0  46083-3 0  9996
2 67135  51.8743 357.4306 0002849  92.9885 267.1427 15.37129291  4502
KUIPER-00179            
1 67136U 25301D   26008.18146509  .00015914  00000+0  44695-3 0  9994
2 67136  51.8737 357.4675 0003391 119.6806 240.4518 15.36690491  4619
KUIPER-00181            
1 67137U 25301E   26008.14417071 -.00024670  00000+0 -70967-3 0  9998
2 67137  51.8656 357.9529 0010179 184.5431 175.5463 15.34816623  4588
KUIPER-00183            
1 67138U 25301F   26008.14865347  .00021280  00000+0  63210-3 0  9997
2 67138  51.8635 357.9780 0011166 186.6185 173.4655 15.34670352  4599
KUIPER-00184            
1 67139U 25301G   26008.14328554  .00023099  00000+0  68008-3 0  9992
2 67139  51.8643 357.9460 0009312 184.6204 175.4697 15.34915616  4700
KUIPER-00186            
1 67140U 25301H   26008.13409879  .00024894  00000+0  71377-3 0  9990
2 67140  51.8692 357.8948 0007960 169.5544 190.5608 15.35714389  4426
KUIPER-00187            
1 67141U 25301J   26008.18801949  .00014626  00000+0  41694-3 0  9991
2 67141  51.8711 357.5113 0004938 155.0658 205.0567 15.36291217  4436
KUIPER-00188            
1 67142U 25301K   26008.13556476  .00013427  00000+0  39252-3 0  9994
2 67142  51.8705 357.9049 0007579 175.1670 184.9390 15.35565573  4429
KUIPER-00191            
1 67143U 25301L   26008.13268578  .00026796  00000+0  76711-3 0  9992
2 67143  51.8680 357.8848 0006662 168.7401 191.3736 15.35729861  4451
KUIPER-00196            
1 67144U 25301M   26008.18527740  .00023455  00000+0  65732-3 0  9997
2 67144  51.8730 357.4934 0003898 132.4559 227.6757 15.36486017  4438
KUIPER-00204            
1 67145U 25301N   26008.16668980 -.00800205  00000+0 -28948-1 0  9992
2 67145  51.8776 357.6042 0004608 102.1286 129.4468 15.30377895  4538
KUIPER-00210            
1 67146U 25301P   26008.14727228  .00018305  00000+0  54487-3 0  9991
2 67146  51.8618 357.9671 0010449 191.2630 168.8123 15.34715053  4594
